[{"OBJECT_NAME":"STARLINK-30590","OBJECT_ID":"2023-160R","EPOCH":"2025-08-22T14:48:19.057536","MEAN_MOTION":15.02530101,"ECCENTRICITY":0.00011743,"INCLINATION":43.0035,"RA_OF_ASC_NODE":81.8346,"ARG_OF_PERICENTER":270.5617,"MEAN_ANOMALY":89.5091,"EPHEMERIS_TYPE":0,"CLASSIFICATION_TYPE":"U","NORAD_CAT_ID":58090,"ELEMENT_SET_NO":999,"REV_AT_EPOCH":10297,"BSTAR":2.6003915e-5,"MEAN_MOTION_DOT":1.48e-6,"MEAN_MOTION_DDOT":0},{"OBJECT_NAME":"STARLINK-30608","OBJECT_ID":"2023-160S","EPOCH":"2025-08-22T06:35:17.380608","MEAN_MOTION":15.02533318,"ECCENTRICITY":0.00013897,"INCLINATION":43.0034,"RA_OF_ASC_NODE":83.5665,"ARG_OF_PERICENTER":259.1872,"MEAN_ANOMALY":100.8814,"EPHEMERIS_TYPE":0,"CLASSIFICATION_TYPE":"U","NORAD_CAT_ID":58091,"ELEMENT_SET_NO":999,"REV_AT_EPOCH":10292,"BSTAR":-1.7543122e-5,"MEAN_MOTION_DOT":-4.41e-6,"MEAN_MOTION_DDOT":0},{"OBJECT_NAME":"STARLINK-30615","OBJECT_ID":"2023-160T","EPOCH":"2025-08-22T06:28:53.965056","MEAN_MOTION":15.02532261,"ECCENTRICITY":0.00012352,"INCLINATION":43.0034,"RA_OF_ASC_NODE":83.5287,"ARG_OF_PERICENTER":264.0601,"MEAN_ANOMALY":96.01,"EPHEMERIS_TYPE":0,"CLASSIFICATION_TYPE":"U","NORAD_CAT_ID":58092,"ELEMENT_SET_NO":999,"REV_AT_EPOCH":10292,"BSTAR":-1.0156163e-5,"MEAN_MOTION_DOT":-3.41e-6,"MEAN_MOTION_DDOT":0},{"OBJECT_NAME":"STARLINK-30578","OBJECT_ID":"2023-160U","EPOCH":"2025-08-22T13:55:44.199552","MEAN_MOTION":15.02534509,"ECCENTRICITY":0.00010723,"INCLINATION":43.0026,"RA_OF_ASC_NODE":82.4105,"ARG_OF_PERICENTER":268.7126,"MEAN_ANOMALY":91.3593,"EPHEMERIS_TYPE":0,"CLASSIFICATION_TYPE":"U","NORAD_CAT_ID":58093,"ELEMENT_SET_NO":999,"REV_AT_EPOCH":10296,"BSTAR":1.8178558e-5,"MEAN_MOTION_DOT":4.2e-7,"MEAN_MOTION_DDOT":0},{"OBJECT_NAME":"STARLINK-30574","OBJECT_ID":"2023-160V","EPOCH":"2025-08-22T06:25:42.214944","MEAN_MOTION":15.02531089,"ECCENTRICITY":0.000136,"INCLINATION":43.0022,"RA_OF_ASC_NODE":83.5173,"ARG_OF_PERICENTER":272.6892,"MEAN_ANOMALY":87.3795,"EPHEMERIS_TYPE":0,"CLASSIFICATION_TYPE":"U","NORAD_CAT_ID":58094,"ELEMENT_SET_NO":999,"REV_AT_EPOCH":10292,"BSTAR":1.4047337e-5,"MEAN_MOTION_DOT":-1.4e-7,"MEAN_MOTION_DDOT":0},{"OBJECT_NAME":"STARLINK-30570","OBJECT_ID":"2023-160W","EPOCH":"2025-08-22T06:20:53.980224","MEAN_MOTION":15.02537909,"ECCENTRICITY":0.00012186,"INCLINATION":43.0042,"RA_OF_ASC_NODE":83.4913,"ARG_OF_PERICENTER":263.2905,"MEAN_ANOMALY":96.7799,"EPHEMERIS_TYPE":0,"CLASSIFICATION_TYPE":"U","NORAD_CAT_ID":58095,"ELEMENT_SET_NO":999,"REV_AT_EPOCH":10292,"BSTAR":1.4792068e-5,"MEAN_MOTION_DOT":-4.0e-8,"MEAN_MOTION_DDOT":0},{"OBJECT_NAME":"STARLINK-30581","OBJECT_ID":"2023-160X","EPOCH":"2025-08-22T14:10:07.319136","MEAN_MOTION":15.0253678,"ECCENTRICITY":0.00013572,"INCLINATION":43.0036,"RA_OF_ASC_NODE":82.4812,"ARG_OF_PERICENTER":261.9108,"MEAN_ANOMALY":98.1581,"EPHEMERIS_TYPE":0,"CLASSIFICATION_TYPE":"U","NORAD_CAT_ID":58096,"ELEMENT_SET_NO":999,"REV_AT_EPOCH":10296,"BSTAR":5.146951e-5,"MEAN_MOTION_DOT":4.92e-6,"MEAN_MOTION_DDOT":0},{"OBJECT_NAME":"STARLINK-30594","OBJECT_ID":"2023-161A","EPOCH":"2025-08-21T16:56:44.721888","MEAN_MOTION":15.30190261,"ECCENTRICITY":0.00014069,"INCLINATION":53.163,"RA_OF_ASC_NODE":14.4097,"ARG_OF_PERICENTER":76.7809,"MEAN_ANOMALY":283.3348,"EPHEMERIS_TYPE":0,"CLASSIFICATION_TYPE":"U","NORAD_CAT_ID":58097,"ELEMENT_SET_NO":999,"REV_AT_EPOCH":10380,"BSTAR":2.2644692e-5,"MEAN_MOTION_DOT":3.11e-6,"MEAN_MOTION_DDOT":0},{"OBJECT_NAME":"STARLINK-30614","OBJECT_ID":"2023-161B","EPOCH":"2025-08-21T18:26:14.141472","MEAN_MOTION":15.30195793,"ECCENTRICITY":0.00010045,"INCLINATION":53.1615,"RA_OF_ASC_NODE":14.0837,"ARG_OF_PERICENTER":96.7392,"MEAN_ANOMALY":263.3724,"EPHEMERIS_TYPE":0,"CLASSIFICATION_TYPE":"U","NORAD_CAT_ID":58098,"ELEMENT_SET_NO":999,"REV_AT_EPOCH":10381,"BSTAR":-1.3857074e-5,"MEAN_MOTION_DOT":-7.69e-6,"MEAN_MOTION_DDOT":0},{"OBJECT_NAME":"STARLINK-30607","OBJECT_ID":"2023-161C","EPOCH":"2025-08-21T15:22:48.566496","MEAN_MOTION":15.30186326,"ECCENTRICITY":0.00012546,"INCLINATION":53.1628,"RA_OF_ASC_NODE":4.7181,"ARG_OF_PERICENTER":80.6122,"MEAN_ANOMALY":279.5021,"EPHEMERIS_TYPE":0,"CLASSIFICATION_TYPE":"U","NORAD_CAT_ID":58099,"ELEMENT_SET_NO":999,"REV_AT_EPOCH":10392,"BSTAR":2.341182e-5,"MEAN_MOTION_DOT":3.34e-6,"MEAN_MOTION_DDOT":0},{"OBJECT_NAME":"STARLINK-30600","OBJECT_ID":"2023-161D","EPOCH":"2025-08-21T18:39:54.985536","MEAN_MOTION":15.30190736,"ECCENTRICITY":0.00011279,"INCLINATION":53.1629,"RA_OF_ASC_NODE":14.1353,"ARG_OF_PERICENTER":113.0602,"MEAN_ANOMALY":247.0518,"EPHEMERIS_TYPE":0,"CLASSIFICATION_TYPE":"U","NORAD_CAT_ID":58100,"ELEMENT_SET_NO":999,"REV_AT_EPOCH":10381,"BSTAR":-4.2957227e-5,"MEAN_MOTION_DOT":-1.631e-5,"MEAN_MOTION_DDOT":0},{"OBJECT_NAME":"STARLINK-30605","OBJECT_ID":"2023-161E","EPOCH":"2025-08-21T15:12:03.052224","MEAN_MOTION":15.30193844,"ECCENTRICITY":0.00010753,"INCLINATION":53.162,"RA_OF_ASC_NODE":14.6641,"ARG_OF_PERICENTER":96.9052,"MEAN_ANOMALY":263.2071,"EPHEMERIS_TYPE":0,"CLASSIFICATION_TYPE":"U","NORAD_CAT_ID":58101,"ELEMENT_SET_NO":999,"REV_AT_EPOCH":10379,"BSTAR":4.2803711e-5,"MEAN_MOTION_DOT":9.09e-6,"MEAN_MOTION_DDOT":0},{"OBJECT_NAME":"STARLINK-30592","OBJECT_ID":"2023-161F","EPOCH":"2025-08-21T16:41:32.822592","MEAN_MOTION":15.30191797,"ECCENTRICITY":8.443e-5,"INCLINATION":53.1609,"RA_OF_ASC_NODE":14.3408,"ARG_OF_PERICENTER":89.8178,"MEAN_ANOMALY":270.2919,"EPHEMERIS_TYPE":0,"CLASSIFICATION_TYPE":"U","NORAD_CAT_ID":58102,"ELEMENT_SET_NO":999,"REV_AT_EPOCH":10380,"BSTAR":9.8751164e-5,"MEAN_MOTION_DOT":2.566e-5,"MEAN_MOTION_DDOT":0},{"OBJECT_NAME":"STARLINK-30589","OBJECT_ID":"2023-161G","EPOCH":"2025-08-20T16:34:23.474208","MEAN_MOTION":15.30185395,"ECCENTRICITY":9.38e-5,"INCLINATION":53.1623,"RA_OF_ASC_NODE":19.2472,"ARG_OF_PERICENTER":57.4492,"MEAN_ANOMALY":302.6599,"EPHEMERIS_TYPE":0,"CLASSIFICATION_TYPE":"U","NORAD_CAT_ID":58103,"ELEMENT_SET_NO":999,"REV_AT_EPOCH":10364,"BSTAR":9.5276e-5,"MEAN_MOTION_DOT":2.463e-5,"MEAN_MOTION_DDOT":0},{"OBJECT_NAME":"STARLINK-30617","OBJECT_ID":"2023-161H","EPOCH":"2025-08-22T12:32:26.363040","MEAN_MOTION":15.30195514,"ECCENTRICITY":0.00011579,"INCLINATION":53.1623,"RA_OF_ASC_NODE":10.7755,"ARG_OF_PERICENTER":81.7343,"MEAN_ANOMALY":278.3789,"EPHEMERIS_TYPE":0,"CLASSIFICATION_TYPE":"U","NORAD_CAT_ID":58104,"ELEMENT_SET_NO":999,"REV_AT_EPOCH":10392,"BSTAR":5.0802261e-5,"MEAN_MOTION_DOT":1.146e-5,"MEAN_MOTION_DDOT":0},{"OBJECT_NAME":"STARLINK-30616","OBJECT_ID":"2023-161J","EPOCH":"2025-08-21T15:06:40.244544","MEAN_MOTION":15.30191462,"ECCENTRICITY":0.00011941,"INCLINATION":53.1616,"RA_OF_ASC_NODE":1.692,"ARG_OF_PERICENTER":63.7572,"MEAN_ANOMALY":296.3552,"EPHEMERIS_TYPE":0,"CLASSIFICATION_TYPE":"U","NORAD_CAT_ID":58105,"ELEMENT_SET_NO":999,"REV_AT_EPOCH":10396,"BSTAR":7.7692146e-5,"MEAN_MOTION_DOT":1.942e-5,"MEAN_MOTION_DDOT":0}]
