STARLINK-30590          
1 58090U 23160R   25234.61688724  .00000148  00000+0  26004-4 0  9990
2 58090  43.0035  81.8346 0001174 270.5617  89.5091 15.02530101102979
STARLINK-30608          
1 58091U 23160S   25234.27450672 -.00000441  00000+0 -17543-4 0  9998
2 58091  43.0034  83.5665 0001389 259.1872 100.8814 15.02533318102924
STARLINK-30615          
1 58092U 23160T   25234.27006904 -.00000341  00000+0 -10156-4 0  9996
2 58092  43.0034  83.5287 0001235 264.0601  96.0100 15.02532261102920
STARLINK-30578          
1 58093U 23160U   25234.58037268  .00000042  00000+0  18179-4 0  9997
2 58093  43.0026  82.4105 0001072 268.7126  91.3593 15.02534509102966
STARLINK-30574          
1 58094U 23160V   25234.26784971 -.00000014  00000+0  14047-4 0  9993
2 58094  43.0022  83.5173 0001360 272.6892  87.3795 15.02531089102929
STARLINK-30570          
1 58095U 23160W   25234.26451366 -.00000004  00000+0  14792-4 0  9999
2 58095  43.0042  83.4913 0001218 263.2905  96.7799 15.02537909102921
STARLINK-30581          
1 58096U 23160X   25234.59036249  .00000492  00000+0  51470-4 0  9999
2 58096  43.0036  82.4812 0001357 261.9108  98.1581 15.02536780102961
STARLINK-30594          
1 58097U 23161A   25233.70607317  .00000311  00000+0  22645-4 0  9995
2 58097  53.1630  14.4097 0001406  76.7809 283.3348 15.30190261103803
STARLINK-30614          
1 58098U 23161B   25233.76821923 -.00000769  00000+0 -13857-4 0  9997
2 58098  53.1615  14.0837 0001004  96.7392 263.3724 15.30195793103810
STARLINK-30607          
1 58099U 23161C   25233.64083989  .00000334  00000+0  23412-4 0  9991
2 58099  53.1628   4.7181 0001254  80.6122 279.5021 15.30186326103926
STARLINK-30600          
1 58100U 23161D   25233.77771974 -.00001631  00000+0 -42957-4 0  9994
2 58100  53.1629  14.1353 0001127 113.0602 247.0518 15.30190736103818
STARLINK-30605          
1 58101U 23161E   25233.63336866  .00000909  00000+0  42804-4 0  9993
2 58101  53.1620  14.6641 0001075  96.9052 263.2071 15.30193844103799
STARLINK-30592          
1 58102U 23161F   25233.69551878  .00002566  00000+0  98751-4 0  9995
2 58102  53.1609  14.3408 0000844  89.8178 270.2919 15.30191797103804
STARLINK-30589          
1 58103U 23161G   25232.69054947  .00002463  00000+0  95276-4 0  9995
2 58103  53.1623  19.2472 0000938  57.4492 302.6599 15.30185395103643
STARLINK-30617          
1 58104U 23161H   25234.52252735  .00001146  00000+0  50802-4 0  9998
2 58104  53.1623  10.7755 0001157  81.7343 278.3789 15.30195514103928
STARLINK-30616          
1 58105U 23161J   25233.62963246  .00001942  00000+0  77692-4 0  9995
2 58105  53.1616   1.6920 0001194  63.7572 296.3552 15.30191462103969
